{
  "type": "FeatureCollection",
  "features": [
    {
      "type": "Feature",
      "properties": {
        "norad_id": 25590,
        "name": "COSMOS 2361",
        "group": "musson",
        "lat": -4.806969125429217,
        "lon": -14.841027631802097,
        "alt_km": 988.8106944905658,
        "timestamp": "2025-12-10T11:33:53.655203+00:00",
        "meta_object_name": "COSMOS 2361",
        "meta_object_id": "1998-076A",
        "meta_epoch": "2025-12-10T03:11:59.178048",
        "meta_mean_motion": 13.7321707,
        "meta_eccentricity": 0.0030056,
        "meta_inclination": 82.9338,
        "meta_ra_of_asc_node": 346.0143,
        "meta_arg_of_pericenter": 273.1666,
        "meta_mean_anomaly": 159.6616,
        "meta_ephemeris_type": 0,
        "meta_classification_type": "U",
        "meta_norad_cat_id": 25590,
        "meta_element_set_no": 999,
        "meta_rev_at_epoch": 35075,
        "meta_bstar": 8.126e-05,
        "meta_mean_motion_dot": 9e-07,
        "meta_mean_motion_ddot": 0,
        "tle_line1": "1 25590U 98076A   25344.13332382  .00000090  00000+0  81260-4 0  9993",
        "tle_line2": "2 25590  82.9338 346.0143 0030056 273.1666 159.6616 13.73217070350757"
      },
      "geometry": {
        "type": "Point",
        "coordinates": [
          -14.841027631802097,
          -4.806969125429217
        ]
      }
    },
    {
      "type": "Feature",
      "properties": {
        "norad_id": 26818,
        "name": "COSMOS 2378",
        "group": "musson",
        "lat": 59.08135403206918,
        "lon": 13.362532025596026,
        "alt_km": 999.8667360963227,
        "timestamp": "2025-12-10T11:33:53.655223+00:00",
        "meta_object_name": "COSMOS 2378",
        "meta_object_id": "2001-023A",
        "meta_epoch": "2025-12-10T04:37:33.598272",
        "meta_mean_motion": 13.74141691,
        "meta_eccentricity": 0.0032263,
        "meta_inclination": 82.9273,
        "meta_ra_of_asc_node": 1.6136,
        "meta_arg_of_pericenter": 212.0946,
        "meta_mean_anomaly": 218.5089,
        "meta_ephemeris_type": 0,
        "meta_classification_type": "U",
        "meta_norad_cat_id": 26818,
        "meta_element_set_no": 999,
        "meta_rev_at_epoch": 22888,
        "meta_bstar": 5.555e-05,
        "meta_mean_motion_dot": 6.7e-07,
        "meta_mean_motion_ddot": 0,
        "tle_line1": "1 26818U 01023A   25344.19274998  .00000067  00000+0  55550-4 0  9994",
        "tle_line2": "2 26818  82.9273   1.6136 0032263 212.0946 218.5089 13.74141691228883"
      },
      "geometry": {
        "type": "Point",
        "coordinates": [
          13.362532025596026,
          59.08135403206918
        ]
      }
    },
    {
      "type": "Feature",
      "properties": {
        "norad_id": 27436,
        "name": "COSMOS 2389",
        "group": "musson",
        "lat": -76.6763731001248,
        "lon": 160.15776369570582,
        "alt_km": 1022.8239992577292,
        "timestamp": "2025-12-10T11:33:53.655237+00:00",
        "meta_object_name": "COSMOS 2389",
        "meta_object_id": "2002-026A",
        "meta_epoch": "2025-12-09T20:27:51.412032",
        "meta_mean_motion": 13.75154194,
        "meta_eccentricity": 0.004768,
        "meta_inclination": 82.95,
        "meta_ra_of_asc_node": 309.122,
        "meta_arg_of_pericenter": 68.5853,
        "meta_mean_anomaly": 317.0736,
        "meta_ephemeris_type": 0,
        "meta_classification_type": "U",
        "meta_norad_cat_id": 27436,
        "meta_element_set_no": 999,
        "meta_rev_at_epoch": 18109,
        "meta_bstar": 9.4732e-05,
        "meta_mean_motion_dot": 1.07e-06,
        "meta_mean_motion_ddot": 0,
        "tle_line1": "1 27436U 02026A   25343.85267838  .00000107  00000+0  94732-4 0  9992",
        "tle_line2": "2 27436  82.9500 309.1220 0047680  68.5853 317.0736 13.75154194181091"
      },
      "geometry": {
        "type": "Point",
        "coordinates": [
          160.15776369570582,
          -76.6763731001248
        ]
      }
    },
    {
      "type": "Feature",
      "properties": {
        "norad_id": 27818,
        "name": "COSMOS 2398",
        "group": "musson",
        "lat": -53.70861368632888,
        "lon": 104.06568332620748,
        "alt_km": 1008.6093987409222,
        "timestamp": "2025-12-10T11:33:53.655249+00:00",
        "meta_object_name": "COSMOS 2398",
        "meta_object_id": "2003-023A",
        "meta_epoch": "2025-12-10T04:00:14.728032",
        "meta_mean_motion": 13.72385286,
        "meta_eccentricity": 0.0032496,
        "meta_inclination": 82.9484,
        "meta_ra_of_asc_node": 274.5942,
        "meta_arg_of_pericenter": 118.6771,
        "meta_mean_anomaly": 359.6474,
        "meta_ephemeris_type": 0,
        "meta_classification_type": "U",
        "meta_norad_cat_id": 27818,
        "meta_element_set_no": 999,
        "meta_rev_at_epoch": 12781,
        "meta_bstar": 9.1835e-05,
        "meta_mean_motion_dot": 1e-06,
        "meta_mean_motion_ddot": 0,
        "tle_line1": "1 27818U 03023A   25344.16683713  .00000100  00000+0  91835-4 0  9997",
        "tle_line2": "2 27818  82.9484 274.5942 0032496 118.6771 359.6474 13.72385286127813"
      },
      "geometry": {
        "type": "Point",
        "coordinates": [
          104.06568332620748,
          -53.70861368632888
        ]
      }
    },
    {
      "type": "Feature",
      "properties": {
        "norad_id": 28380,
        "name": "COSMOS 2407",
        "group": "musson",
        "lat": 37.14821711759626,
        "lon": -140.06472347307937,
        "alt_km": 946.9790145587804,
        "timestamp": "2025-12-10T11:33:53.655260+00:00",
        "meta_object_name": "COSMOS 2407",
        "meta_object_id": "2004-028A",
        "meta_epoch": "2025-12-10T03:17:29.866272",
        "meta_mean_motion": 13.76313261,
        "meta_eccentricity": 0.0040411,
        "meta_inclination": 82.961,
        "meta_ra_of_asc_node": 214.8195,
        "meta_arg_of_pericenter": 61.9048,
        "meta_mean_anomaly": 68.8154,
        "meta_ephemeris_type": 0,
        "meta_classification_type": "U",
        "meta_norad_cat_id": 28380,
        "meta_element_set_no": 999,
        "meta_rev_at_epoch": 7387,
        "meta_bstar": 7.3975e-05,
        "meta_mean_motion_dot": 8.8e-07,
        "meta_mean_motion_ddot": 0,
        "tle_line1": "1 28380U 04028A   25344.13715123  .00000088  00000+0  73975-4 0  9996",
        "tle_line2": "2 28380  82.9610 214.8195 0040411  61.9048  68.8154 13.76313261 73877"
      },
      "geometry": {
        "type": "Point",
        "coordinates": [
          -140.06472347307937,
          37.14821711759626
        ]
      }
    },
    {
      "type": "Feature",
      "properties": {
        "norad_id": 28521,
        "name": "COSMOS 2414",
        "group": "musson",
        "lat": -27.411501734748402,
        "lon": 10.047142580556285,
        "alt_km": 927.4124215434103,
        "timestamp": "2025-12-10T11:33:53.655271+00:00",
        "meta_object_name": "COSMOS 2414",
        "meta_object_id": "2005-002A",
        "meta_epoch": "2025-12-10T01:55:12.551232",
        "meta_mean_motion": 13.87902448,
        "meta_eccentricity": 0.0040736,
        "meta_inclination": 82.9494,
        "meta_ra_of_asc_node": 186.6712,
        "meta_arg_of_pericenter": 147.1554,
        "meta_mean_anomaly": 213.2153,
        "meta_ephemeris_type": 0,
        "meta_classification_type": "U",
        "meta_norad_cat_id": 28521,
        "meta_element_set_no": 999,
        "meta_rev_at_epoch": 5758,
        "meta_bstar": 6.9299e-05,
        "meta_mean_motion_dot": 9.9e-07,
        "meta_mean_motion_ddot": 0,
        "tle_line1": "1 28521U 05002A   25344.08000638  .00000099  00000+0  69299-4 0  9994",
        "tle_line2": "2 28521  82.9494 186.6712 0040736 147.1554 213.2153 13.87902448 57582"
      },
      "geometry": {
        "type": "Point",
        "coordinates": [
          10.047142580556285,
          -27.411501734748402
        ]
      }
    },
    {
      "type": "Feature",
      "properties": {
        "norad_id": 32052,
        "name": "COSMOS 2429",
        "group": "musson",
        "lat": 81.35332052037727,
        "lon": 39.091632002942454,
        "alt_km": 951.7946188866827,
        "timestamp": "2025-12-10T11:33:53.655282+00:00",
        "meta_object_name": "COSMOS 2429",
        "meta_object_id": "2007-038A",
        "meta_epoch": "2025-12-10T02:25:30.364896",
        "meta_mean_motion": 13.75148997,
        "meta_eccentricity": 0.0039369,
        "meta_inclination": 82.9802,
        "meta_ra_of_asc_node": 345.2542,
        "meta_arg_of_pericenter": 45.0578,
        "meta_mean_anomaly": 315.376,
        "meta_ephemeris_type": 0,
        "meta_classification_type": "U",
        "meta_norad_cat_id": 32052,
        "meta_element_set_no": 999,
        "meta_rev_at_epoch": 91566,
        "meta_bstar": 6.9226e-05,
        "meta_mean_motion_dot": 8.2e-07,
        "meta_mean_motion_ddot": 0,
        "tle_line1": "1 32052U 07038A   25344.10104589  .00000082  00000+0  69226-4 0  9994",
        "tle_line2": "2 32052  82.9802 345.2542 0039369  45.0578 315.3760 13.75148997915663"
      },
      "geometry": {
        "type": "Point",
        "coordinates": [
          39.091632002942454,
          81.35332052037727
        ]
      }
    },
    {
      "type": "Feature",
      "properties": {
        "norad_id": 35635,
        "name": "COSMOS 2454",
        "group": "musson",
        "lat": -60.244204696647564,
        "lon": 2.848041653074326,
        "alt_km": 950.2054688396593,
        "timestamp": "2025-12-10T11:33:53.655292+00:00",
        "meta_object_name": "COSMOS 2454",
        "meta_object_id": "2009-039A",
        "meta_epoch": "2025-12-10T00:48:50.279328",
        "meta_mean_motion": 13.89928013,
        "meta_eccentricity": 0.002048,
        "meta_inclination": 82.9554,
        "meta_ra_of_asc_node": 170.6962,
        "meta_arg_of_pericenter": 80.9665,
        "meta_mean_anomaly": 79.7408,
        "meta_ephemeris_type": 0,
        "meta_classification_type": "U",
        "meta_norad_cat_id": 35635,
        "meta_element_set_no": 999,
        "meta_rev_at_epoch": 83112,
        "meta_bstar": 5.7382e-05,
        "meta_mean_motion_dot": 8.7e-07,
        "meta_mean_motion_ddot": 0,
        "tle_line1": "1 35635U 09039A   25344.03391527  .00000087  00000+0  57382-4 0  9994",
        "tle_line2": "2 35635  82.9554 170.6962 0020480  80.9665  79.7408 13.89928013831120"
      },
      "geometry": {
        "type": "Point",
        "coordinates": [
          2.848041653074326,
          -60.244204696647564
        ]
      }
    },
    {
      "type": "Feature",
      "properties": {
        "norad_id": 36519,
        "name": "COSMOS 2463",
        "group": "musson",
        "lat": 68.60850620999229,
        "lon": 46.75567624074322,
        "alt_km": 1005.1859528355462,
        "timestamp": "2025-12-10T11:33:53.655302+00:00",
        "meta_object_name": "COSMOS 2463",
        "meta_object_id": "2010-017A",
        "meta_epoch": "2025-12-10T04:30:43.905888",
        "meta_mean_motion": 13.71648905,
        "meta_eccentricity": 0.0034841,
        "meta_inclination": 82.9615,
        "meta_ra_of_asc_node": 28.5878,
        "meta_arg_of_pericenter": 295.396,
        "meta_mean_anomaly": 123.8475,
        "meta_ephemeris_type": 0,
        "meta_classification_type": "U",
        "meta_norad_cat_id": 36519,
        "meta_element_set_no": 999,
        "meta_rev_at_epoch": 78202,
        "meta_bstar": 6.2693e-05,
        "meta_mean_motion_dot": 7.1e-07,
        "meta_mean_motion_ddot": 0,
        "tle_line1": "1 36519U 10017A   25344.18800817  .00000071  00000+0  62693-4 0  9991",
        "tle_line2": "2 36519  82.9615  28.5878 0034841 295.3960 123.8475 13.71648905782022"
      },
      "geometry": {
        "type": "Point",
        "coordinates": [
          46.75567624074322,
          68.60850620999229
        ]
      }
    }
  ]
}